[{"OBJECT_NAME":"NEE-01 PEGASO","OBJECT_ID":"2013-018B","EPOCH":"2026-03-09T08:45:44.876736","MEAN_MOTION":14.93090964,"ECCENTRICITY":0.00136216,"INCLINATION":98.105,"RA_OF_ASC_NODE":209.346,"ARG_OF_PERICENTER":130.5869,"MEAN_ANOMALY":229.6537,"EPHEMERIS_TYPE":0,"CLASSIFICATION_TYPE":"U","NORAD_CAT_ID":39151,"ELEMENT_SET_NO":999,"REV_AT_EPOCH":69580,"BSTAR":0.00037910707,"MEAN_MOTION_DOT":3.896e-5,"MEAN_MOTION_DDOT":0},{"OBJECT_NAME":"UNKNOWN","OBJECT_ID":"","EPOCH":"2026-02-26T12:19:36.100992","MEAN_MOTION":14.93459114,"ECCENTRICITY":0.00108231,"INCLINATION":97.8131,"RA_OF_ASC_NODE":148.7516,"ARG_OF_PERICENTER":110.2597,"MEAN_ANOMALY":249.9787,"EPHEMERIS_TYPE":0,"CLASSIFICATION_TYPE":"U","NORAD_CAT_ID":270138,"ELEMENT_SET_NO":999,"REV_AT_EPOCH":33851,"BSTAR":0.00036632015,"MEAN_MOTION_DOT":3.799e-5,"MEAN_MOTION_DDOT":0}]
